STARLINK-2170           
1 47753U 21017AH  26155.26088514 -.00000779  00000+0 -13323-4 0  9990
2 47753  53.1559 161.2405 0001439 135.7842 224.3275 15.31705253291157
STARLINK-2171           
1 47754U 21017AJ  26156.67423291  .01703923  28222-2  10183-2 0  9990
2 47754  53.0270  83.2557 0004207 200.0075 160.0798 16.18485495292301
STARLINK-2178           
1 47760U 21017AQ  26156.30793412  .00003478  00000+0  12371-3 0  9992
2 47760  53.1564 169.1410 0000979  77.7792 282.3319 15.31717155291114
STARLINK-2180           
1 47762U 21017AS  26155.23259727  .00096434  00000+0  74358-3 0  9998
2 47762  53.1562 158.3679 0006352  21.6786 338.4501 15.71190584291169
STARLINK-2185           
1 47767U 21017AX  26155.22577104  .00082561  00000+0  13524-2 0  9997
2 47767  53.1538 153.7405 0007388  30.5290 329.6149 15.51767741291255
STARLINK-2193           
1 47770U 21017BA  26155.23291044  .00001939  00000+0  74226-4 0  9996
2 47770  53.1567 161.3468 0001109  93.5908 266.5220 15.31706833291123
STARLINK-2194           
1 47771U 21017BB  26156.28156090  .00000128  00000+0  15875-4 0  9998
2 47771  53.1566 156.4022 0001013  81.4765 278.6351 15.31716887291292
STARLINK-2195           
1 47772U 21017BC  26156.18218071  .00000576  00000+0  30307-4 0  9990
2 47772  53.1586 170.3259 0001047  85.3057 274.8064 15.31708580291061
STARLINK-2196           
1 47773U 21017BD  26156.31726097  .00004071  00000+0  14281-3 0  9994
2 47773  53.1564 169.1214 0001041  84.5899 275.5221 15.31716630291084
STARLINK-2209           
1 47776U 21017BG  26156.26578300  .00048288  00000+0  69284-3 0  9994
2 47776  53.1533 144.4159 0007035  25.8133 334.3228 15.55653714291456
STARLINK-2211           
1 47778U 21017BJ  26155.54641092  .00082338  00000+0  15080-2 0  9993
2 47778  53.1571 153.0200 0005905  12.0111 348.1038 15.48622006291264
STARLINK-2213           
1 47780U 21017BL  26156.51460711 -.00002464  00000+0 -67668-4 0  9996
2 47780  53.1562 155.3063 0001072 113.2454 246.8661 15.31691558291350
STARLINK-2257           
1 47787U 21018A   26156.42237970  .00001744  00000+0  67959-4 0  9994
2 47787  53.1585 197.5909 0001136 102.8844 257.2285 15.31700522290121
STARLINK-2314           
1 47788U 21018B   26156.35247009  .00050838  00000+0  13098-2 0  9992
2 47788  53.1546 169.9570 0005202  13.6681 346.4464 15.38724305290528
STARLINK-2315           
1 47789U 21018C   26156.40687194  .00000110  00000+0  15293-4 0  9991
2 47789  53.1599 191.2822 0001182  75.8849 284.2283 15.31702763290204
STARLINK-2319           
1 47790U 21018D   26155.25462721  .00003473  00000+0  12359-3 0  9996
2 47790  53.1575 174.0297 0001528  42.5624 317.5496 15.31712219290361
STARLINK-2322           
1 47791U 21018E   26156.39870594  .00001930  00000+0  73895-4 0  9993
2 47791  53.1572 194.9322 0001337  93.2240 266.8915 15.31715303290172
STARLINK-2334           
1 47792U 21018F   26156.39754161 -.00000992  00000+0 -20219-4 0  9996
2 47792  53.1593 191.1594 0001128 105.5487 254.5639 15.31696992290207
STARLINK-2338           
1 47793U 21018G   26156.41150773 -.00000460  00000+0 -30614-5 0  9990
2 47793  53.1589 191.0923 0001338  64.2359 295.8780 15.31704300290196
STARLINK-2373           
1 47796U 21018K   26156.39576443  .00039696  00000+0  12147-2 0  9995
2 47796  53.1557 190.9217 0002622  31.8572 328.2588 15.33473982290202
STARLINK-2377           
1 47797U 21018L   26156.42968741  .00002880  00000+0  10452-3 0  9999
2 47797  53.1559 207.2521 0001111  83.5478 276.5649 15.31706267289985
STARLINK-2379           
1 47798U 21018M   26156.36490034  .00000798  00000+0  37486-4 0  9991
2 47798  53.1587 191.3080 0001416  96.8493 263.2669 15.31705661290199
STARLINK-2380           
1 47799U 21018N   26156.38193775  .00002232  00000+0  83650-4 0  9995
2 47799  53.1574 184.2349 0001239  80.6902 279.4240 15.31707364290291
STARLINK-2381           
1 47800U 21018P   26156.37420660  .00003784  00000+0  13357-3 0  9992
2 47800  53.1574 191.1764 0001103 107.8436 252.2685 15.31715532290193
STARLINK-2383           
1 47802U 21018R   26156.61151694  .00011107  00000+0  36894-3 0  9998
2 47802  53.1579 206.8784 0001296  72.4608 287.6535 15.31718250290014
STARLINK-2385           
1 47804U 21018T   26156.36302950  .00000749  00000+0  35872-4 0  9991
2 47804  53.1584 182.3538 0001138  87.2140 272.8992 15.31709780290322
STARLINK-2386           
1 47805U 21018U   26156.41678865  .00037972  00000+0  16322-2 0  9994
2 47805  53.0970 193.6767 0003710  17.2016 342.9105 15.22318855290169
STARLINK-2388           
1 47807U 21018W   26156.30327832  .00004168  00000+0  14595-3 0  9991
2 47807  53.1558 169.1502 0000965  67.5058 292.6045 15.31708493290505
