OBJECT_NAME,OBJECT_ID,EPOCH,MEAN_MOTION,ECCENTRICITY,INCLINATION,RA_OF_ASC_NODE,ARG_OF_PERICENTER,MEAN_ANOMALY,EPHEMERIS_TYPE,CLASSIFICATION_TYPE,NORAD_CAT_ID,ELEMENT_SET_NO,REV_AT_EPOCH,BSTAR,MEAN_MOTION_DOT,MEAN_MOTION_DDOT
STARLINK-2170,2021-017AH,2026-06-04T06:15:40.476096,15.31705253,.00014396,53.1559,161.2405,135.7842,224.3275,0,U,47753,999,29115,-.13322711E-4,-.779E-5,0
STARLINK-2171,2021-017AJ,2026-06-05T16:10:53.723424,16.18485495,.0004207,53.0270,83.2557,200.0075,160.0798,0,U,47754,999,29230,.10183E-2,.1703923E-1,.28222E-2
STARLINK-2178,2021-017AQ,2026-06-05T07:23:25.507968,15.31717155,.0000979,53.1564,169.1410,77.7792,282.3319,0,U,47760,999,29111,.12371E-3,.3478E-4,0
STARLINK-2180,2021-017AS,2026-06-04T05:34:56.404128,15.71190584,.00063525,53.1562,158.3679,21.6786,338.4501,0,U,47762,999,29116,.7435809E-3,.96434E-3,0
STARLINK-2185,2021-017AX,2026-06-04T05:25:06.617856,15.51767741,.0007388,53.1538,153.7405,30.5290,329.6149,0,U,47767,999,29125,.13524025E-2,.82561E-3,0
STARLINK-2193,2021-017BA,2026-06-04T05:35:23.462016,15.31706833,.00011095,53.1567,161.3468,93.5908,266.5220,0,U,47770,999,29112,.74225772E-4,.1939E-4,0
STARLINK-2194,2021-017BB,2026-06-05T06:45:26.861760,15.31716887,.0001013,53.1566,156.4022,81.4765,278.6351,0,U,47771,999,29129,.15875E-4,.128E-5,0
STARLINK-2195,2021-017BC,2026-06-05T04:22:20.413344,15.31708580,.00010473,53.1586,170.3259,85.3057,274.8064,0,U,47772,999,29106,.30306681E-4,.576E-5,0
STARLINK-2196,2021-017BD,2026-06-05T07:36:51.347808,15.31716630,.0001041,53.1564,169.1214,84.5899,275.5221,0,U,47773,999,29108,.14281E-3,.4071E-4,0
STARLINK-2209,2021-017BG,2026-06-05T06:22:43.651200,15.55653714,.0007035,53.1533,144.4159,25.8133,334.3228,0,U,47776,999,29145,.69284E-3,.48288E-3,0
STARLINK-2211,2021-017BJ,2026-06-04T13:06:49.903488,15.48622006,.00059057,53.1571,153.0200,12.0111,348.1038,0,U,47778,999,29126,.15080237E-2,.82338E-3,0
STARLINK-2213,2021-017BL,2026-06-05T12:21:02.054304,15.31691558,.0001072,53.1562,155.3063,113.2454,246.8661,0,U,47780,999,29135,-.67668E-4,-.2464E-4,0
STARLINK-2257,2021-018A,2026-06-05T10:08:13.606080,15.31700522,.0001136,53.1585,197.5909,102.8844,257.2285,0,U,47787,999,29012,.67959E-4,.1744E-4,0
STARLINK-2314,2021-018B,2026-06-05T08:27:33.415776,15.38724305,.0005202,53.1546,169.9570,13.6681,346.4464,0,U,47788,999,29052,.13098E-2,.50838E-3,0
STARLINK-2315,2021-018C,2026-06-05T09:45:53.735616,15.31702763,.0001182,53.1599,191.2822,75.8849,284.2283,0,U,47789,999,29020,.15293E-4,.11E-5,0
STARLINK-2319,2021-018D,2026-06-04T06:06:39.790944,15.31712219,.0001528,53.1575,174.0297,42.5624,317.5496,0,U,47790,999,29036,.12359423E-3,.3473E-4,0
STARLINK-2322,2021-018E,2026-06-05T09:34:08.193216,15.31715303,.0001337,53.1572,194.9322,93.2240,266.8915,0,U,47791,999,29017,.73895E-4,.193E-4,0
STARLINK-2334,2021-018F,2026-06-05T09:32:27.595104,15.31696992,.0001128,53.1593,191.1594,105.5487,254.5639,0,U,47792,999,29020,-.20219E-4,-.992E-5,0
STARLINK-2338,2021-018G,2026-06-05T09:52:34.267872,15.31704300,.0001338,53.1589,191.0923,64.2359,295.8780,0,U,47793,999,29019,-.30614E-5,-.46E-5,0
STARLINK-2373,2021-018K,2026-06-05T09:29:54.046752,15.33473982,.0002622,53.1557,190.9217,31.8572,328.2588,0,U,47796,999,29020,.12147E-2,.39696E-3,0
STARLINK-2377,2021-018L,2026-06-05T10:18:44.992224,15.31706267,.0001111,53.1559,207.2521,83.5478,276.5649,0,U,47797,999,28998,.10452E-3,.288E-4,0
STARLINK-2379,2021-018M,2026-06-05T08:45:27.389376,15.31705661,.0001416,53.1587,191.3080,96.8493,263.2669,0,U,47798,999,29019,.37486E-4,.798E-5,0
STARLINK-2380,2021-018N,2026-06-05T09:09:59.421600,15.31707364,.0001239,53.1574,184.2349,80.6902,279.4240,0,U,47799,999,29029,.8365E-4,.2232E-4,0
STARLINK-2381,2021-018P,2026-06-05T08:58:51.450240,15.31715532,.0001103,53.1574,191.1764,107.8436,252.2685,0,U,47800,999,29019,.13357E-3,.3784E-4,0
STARLINK-2383,2021-018R,2026-06-05T14:40:35.063616,15.31718250,.0001296,53.1579,206.8784,72.4608,287.6535,0,U,47802,999,29001,.36894E-3,.11107E-3,0
STARLINK-2385,2021-018T,2026-06-05T08:42:45.748800,15.31709780,.0001138,53.1584,182.3538,87.2140,272.8992,0,U,47804,999,29032,.35872E-4,.749E-5,0
STARLINK-2386,2021-018U,2026-06-05T10:00:10.539360,15.22318855,.000371,53.0970,193.6767,17.2016,342.9105,0,U,47805,999,29016,.16322E-2,.37972E-3,0
STARLINK-2388,2021-018W,2026-06-05T07:16:43.246848,15.31708493,.0000965,53.1558,169.1502,67.5058,292.6045,0,U,47807,999,29050,.14595E-3,.4168E-4,0
